NORAD_CAT_ID,OBJECT_NAME,OBJECT_TYPE,EPOCH,MEAN_MOTION,ECCENTRICITY,INCLINATION,RA_OF_ASC_NODE,ARG_OF_PERICENTER,MEAN_ANOMALY,BSTAR,MEAN_MOTION_DOT,MEAN_MOTION_DDOT,TLE_LINE0,TLE_LINE1,TLE_LINE2,SEMIMAJOR_AXIS,PERIOD,APOGEE,PERIGEE,DECAYED
54102.0,STARLINK-5179,PAYLOAD,2024-05-31 23:42:05,15.08846144,0.0001274,53.2175,357.298,91.981,268.1328,0.00014442,2.012e-05,0.0,0 STARLINK-5179,1 54102U 22136BD  24152.98756518  .00002012  00000-0  14442-3 0  9992,2 54102  53.2175 357.2980 0001274  91.9810 268.1328 15.08846144 89359,6917.862,95.437,540.608,538.845,0.0
54102.0,STARLINK-5179,PAYLOAD,2024-06-01 20:22:07,15.08839823,0.0001235,53.2178,353.4317,90.5301,269.5832,1.9791e-05,2.7e-07,0.0,0 STARLINK-5179,1 54102U 22136BD  24153.84869247  .00000027  00000-0  19791-4 0  9999,2 54102  53.2178 353.4317 0001235  90.5301 269.5832 15.08839823 89958,6917.881,95.438,540.6,538.892,0.0
54102.0,STARLINK-5179,PAYLOAD,2024-06-02 05:54:25,15.08838302,0.0001287,53.2173,351.6476,85.3059,274.808,5.837e-06,-1.95e-06,0.0,0 STARLINK-5179,1 54102U 22136BD  24154.24613145 -.00000195  00000-0  58370-5 0  9992,2 54102  53.2173 351.6476 0001287  85.3059 274.8080 15.08838302 89548,6917.886,95.438,540.641,538.86,0.0
54102.0,STARLINK-5179,PAYLOAD,2024-06-03 05:45:12,15.08842307,0.0001295,53.2171,347.188,85.4863,274.6277,0.0001213,1.643e-05,0.0,0 STARLINK-5179,1 54102U 22136BD  24155.23973258  .00001643  00000-0  12130-3 0  9996,2 54102  53.2171 347.1880 0001295  85.4863 274.6277 15.08842307 90164,6917.873,95.437,540.634,538.842,0.0
54102.0,STARLINK-5179,PAYLOAD,2024-06-03 21:39:04,15.08847618,0.00013,53.2171,344.2141,86.2779,273.8362,0.00020005,2.898e-05,0.0,0 STARLINK-5179,1 54102U 22136BD  24155.90213002  .00002898  00000-0  20005-3 0  9997,2 54102  53.2171 344.2141 0001300  86.2779 273.8362 15.08847618 89797,6917.857,95.437,540.621,538.823,0.0
54102.0,STARLINK-5179,PAYLOAD,2024-06-04 05:35:59,15.08855974,0.0001402,53.2165,342.7268,81.3749,278.7402,-0.00029735,-5.019e-05,0.0,0 STARLINK-5179,1 54102U 22136BD  24156.23332309 -.00005019  00000-0 -29735-3 0  9995,2 54102  53.2165 342.7268 0001402  81.3749 278.7402 15.08855974 90312,6917.832,95.437,540.666,538.727,0.0
54102.0,STARLINK-5179,PAYLOAD,2024-06-05 05:26:46,15.08845512,0.0001313,53.2179,338.2675,87.59,272.5242,0.00011203,1.496e-05,0.0,0 STARLINK-5179,1 54102U 22136BD  24157.22692979  .00001496  00000-0  11203-3 0  9991,2 54102  53.2179 338.2675 0001313  87.5900 272.5242 15.08845512 90464,6917.864,95.437,540.637,538.82,0.0
54102.0,STARLINK-5179,PAYLOAD,2024-06-05 11:48:19,15.08846924,0.0002463,53.2111,337.0799,85.9976,274.1297,0.00011392,1.525e-05,0.0,0 STARLINK-5179,1 54102U 22136BD  24157.49189372  .00001525  00000-0  11392-3 0  9990,2 54102  53.2111 337.0799 0002463  85.9976 274.1297 15.08846924 90035,6917.859,95.437,541.428,538.02,0.0
54102.0,STARLINK-5179,PAYLOAD,2024-06-05 18:09:52,15.08836224,0.0001623,53.2106,335.8862,95.481,264.6367,-3.6485e-05,-8.69e-06,0.0,0 STARLINK-5179,1 54102U 22136BD  24157.75685504 -.00000869  00000-0 -36485-4 0  9990,2 54102  53.2106 335.8862 0001623  95.4810 264.6367 15.08836224 90546,6917.892,95.438,540.88,538.634,0.0
54102.0,STARLINK-5179,PAYLOAD,2024-06-06 05:17:34,15.08830267,0.0001951,53.2125,333.8089,85.1554,274.9661,2.6058e-05,1.26e-06,0.0,0 STARLINK-5179,1 54102U 22136BD  24158.22054304  .00000126  00000-0  26058-4 0  9990,2 54102  53.2125 333.8089 0001951  85.1554 274.9661 15.08830267 90611,6917.91,95.438,541.125,538.425,0.0
54102.0,STARLINK-5179,PAYLOAD,2024-06-06 18:00:38,15.08861515,0.0001207,53.2112,331.4247,93.5559,266.5572,-0.00032276,-5.424e-05,0.0,0 STARLINK-5179,1 54102U 22136BD  24158.75043999 -.00005424  00000-0 -32276-3 0  9992,2 54102  53.2112 331.4247 0001207  93.5559 266.5572 15.08861515 90695,6917.815,95.436,540.515,538.845,0.0
54102.0,STARLINK-5179,PAYLOAD,2024-06-07 21:02:13,15.0883731,0.000106,53.2104,326.3704,84.7597,275.3516,0.00011584,1.556e-05,0.0,0 STARLINK-5179,1 54102U 22136BD  24159.87654093  .00001556  00000-0  11584-3 0  9998,2 54102  53.2104 326.3704 0001060  84.7597 275.3516 15.08837310 90869,6917.889,95.438,540.487,539.02,0.0
54102.0,STARLINK-5179,PAYLOAD,2024-06-08 11:20:40,15.08870144,0.0001054,53.2162,323.6939,91.6509,268.4604,-0.00029324,-4.956e-05,0.0,0 STARLINK-5179,1 54102U 22136BD  24160.47268610 -.00004956  00000-0 -29324-3 0  9992,2 54102  53.2162 323.6939 0001054  91.6509 268.4604 15.08870144 90487,6917.788,95.436,540.382,538.924,0.0
54102.0,STARLINK-5179,PAYLOAD,2024-06-08 17:42:12,15.08860369,0.0003165,53.2087,322.5032,93.8426,266.2928,0.00023318,3.427e-05,0.0,0 STARLINK-5179,1 54102U 22136BD  24160.73764717  .00003427  00000-0  23318-3 0  9997,2 54102  53.2087 322.5032 0003165  93.8426 266.2928 15.08860369 90991,6917.818,95.436,541.873,537.494,0.0
54102.0,STARLINK-5179,PAYLOAD,2024-06-09 09:36:05,15.08835291,0.0001272,53.2171,319.533,77.9489,282.1645,1.2195e-05,-9.4e-07,0.0,0 STARLINK-5179,1 54102U 22136BD  24161.40006173 -.00000094  00000-0  12195-4 0  9997,2 54102  53.2171 319.5330 0001272  77.9489 282.1645 15.08835291 91092,6917.895,95.438,540.64,538.88,0.0
54102.0,STARLINK-5179,PAYLOAD,2024-06-09 17:33:00,15.08838899,9.29e-05,53.217,318.0454,86.5101,273.5998,5.5831e-05,6.01e-06,0.0,0 STARLINK-5179,1 54102U 22136BD  24161.73126012  .00000601  00000-0  55831-4 0  9995,2 54102  53.2170 318.0454 0000929  86.5101 273.5998 15.08838899 90672,6917.884,95.438,540.391,539.106,0.0
54102.0,STARLINK-5179,PAYLOAD,2024-06-10 11:02:15,15.0883215,8.43e-05,53.2142,314.7723,54.3739,305.7332,-0.00020404,-3.533e-05,0.0,0 STARLINK-5179,1 54102U 22136BD  24162.45990297 -.00003533  00000-0 -20404-3 0  9995,2 54102  53.2142 314.7723 0000843  54.3739 305.7332 15.08832150 91257,6917.904,95.438,540.353,539.186,0.0
54102.0,STARLINK-5179,PAYLOAD,2024-06-10 14:13:01,15.08843163,5.52e-05,53.2163,314.1781,47.844,312.2599,-3.5591e-05,-8.54e-06,0.0,0 STARLINK-5179,1 54102U 22136BD  24162.59237784 -.00000854  00000-0 -35591-4 0  9992,2 54102  53.2163 314.1781 0000552  47.8440 312.2599 15.08843163 90805,6917.871,95.437,540.118,539.354,0.0
54102.0,STARLINK-5179,PAYLOAD,2024-06-10 17:23:47,15.08847125,8.07e-05,53.2165,313.5854,57.4296,302.6774,4.7773e-05,4.73e-06,0.0,0 STARLINK-5179,1 54102U 22136BD  24162.72485617  .00000473  00000-0  47773-4 0  9997,2 54102  53.2165 313.5854 0000807  57.4296 302.6774 15.08847125 91294,6917.859,95.437,540.282,539.165,0.0
54102.0,STARLINK-5179,PAYLOAD,2024-06-11 02:56:06,15.08840017,5.87e-05,53.2164,311.8021,40.7663,319.3373,0.0001088,1.444e-05,0.0,0 STARLINK-5179,1 54102U 22136BD  24163.12230098  .00001444  00000-0  10880-3 0  9990,2 54102  53.2164 311.8021 0000587  40.7663 319.3373 15.08840017 91358,6917.88,95.438,540.151,539.339,0.0
54102.0,STARLINK-5179,PAYLOAD,2024-06-11 14:03:48,15.08838771,8.89e-05,53.2168,309.7185,75.4323,284.6767,5.0096e-05,5.1e-06,0.0,0 STARLINK-5179,1 54102U 22136BD  24163.58598257  .00000510  00000-0  50096-4 0  9991,2 54102  53.2168 309.7185 0000889  75.4323 284.6767 15.08838771 90952,6917.884,95.438,540.364,539.134,0.0
54102.0,STARLINK-5179,PAYLOAD,2024-06-11 17:14:34,15.08846399,0.0001449,53.2181,309.1268,96.2158,263.9,0.00022078,3.228e-05,0.0,0 STARLINK-5179,1 54102U 22136BD  24163.71845915  .00003228  00000-0  22078-3 0  9999,2 54102  53.2181 309.1268 0001449  96.2158 263.9000 15.08846399 90970,6917.861,95.437,540.728,538.723,0.0
54102.0,STARLINK-5179,PAYLOAD,2024-06-12 09:08:26,15.0883576,0.0001279,53.2175,306.1523,95.6334,264.4804,8.9812e-05,1.142e-05,0.0,0 STARLINK-5179,1 54102U 22136BD  24164.38086555  .00001142  00000-0  89812-4 0  9993,2 54102  53.2175 306.1523 0001279  95.6334 264.4804 15.08835760 91546,6917.893,95.438,540.643,538.874,0.0
54102.0,STARLINK-5179,PAYLOAD,2024-06-12 17:05:22,15.08840023,0.0001281,53.218,304.6646,98.4016,261.7122,5.6695e-05,6.15e-06,0.0,0 STARLINK-5179,1 54102U 22136BD  24164.71206654  .00000615  00000-0  56695-4 0  9991,2 54102  53.2180 304.6646 0001281  98.4016 261.7122 15.08840023 91127,6917.88,95.438,540.631,538.859,0.0
54102.0,STARLINK-5179,PAYLOAD,2024-06-13 13:45:23,15.08840736,0.0001225,53.2184,300.8027,85.6871,274.4261,9.1855e-05,1.174e-05,0.0,0 STARLINK-5179,1 54102U 22136BD  24165.57318693  .00001174  00000-0  91855-4 0  9991,2 54102  53.2184 300.8027 0001225  85.6871 274.4261 15.08840736 91257,6917.878,95.438,540.591,538.896,0.0
54102.0,STARLINK-5179,PAYLOAD,2024-06-13 15:20:46,15.08841164,0.0001208,53.2182,300.5046,88.2719,271.8411,9.6177e-05,1.243e-05,0.0,0 STARLINK-5179,1 54102U 22136BD  24165.63942590  .00001243  00000-0  96177-4 0  9996,2 54102  53.2182 300.5046 0001208  88.2719 271.8411 15.08841164 91269,6917.877,95.437,540.578,538.906,0.0
54102.0,STARLINK-5179,PAYLOAD,2024-06-14 15:11:33,15.08843337,0.0001215,53.2181,296.0412,89.059,271.0541,8.1656e-05,1.012e-05,0.0,0 STARLINK-5179,1 54102U 22136BD  24166.63302424  .00001012  00000-0  81656-4 0  9993,2 54102  53.2181 296.0412 0001215  89.0590 271.0541 15.08843337 91415,6917.87,95.437,540.576,538.895,0.0
54102.0,STARLINK-5179,PAYLOAD,2024-06-15 13:26:57,15.08847731,0.0001227,53.2185,291.8784,96.3576,263.7556,2.6199e-05,1.29e-06,0.0,0 STARLINK-5179,1 54102U 22136BD  24167.56038210  .00000129  00000-0  26199-4 0  9994,2 54102  53.2185 291.8784 0001227  96.3576 263.7556 15.08847731 91553,6917.857,95.437,540.571,538.873,0.0
54102.0,STARLINK-5179,PAYLOAD,2024-06-16 14:53:07,15.08842632,0.0001261,53.2176,287.1224,92.879,267.2347,8.9717e-05,1.14e-05,0.0,0 STARLINK-5179,1 54102U 22136BD  24168.62022257  .00001140  00000-0  89717-4 0  9995,2 54102  53.2176 287.1224 0001261  92.8790 267.2347 15.08842632 91717,6917.872,95.437,540.61,538.865,0.0
54102.0,STARLINK-5179,PAYLOAD,2024-06-17 14:43:55,15.08833975,0.0001282,53.218,282.6637,95.1956,264.9183,-7.9782e-06,-4.15e-06,0.0,0 STARLINK-5179,1 54102U 22136BD  24169.61383201 -.00000415  00000-0 -79782-5 0  9992,2 54102  53.2180 282.6637 0001282  95.1956 264.9183 15.08833975 91861,6917.899,95.438,540.651,538.877,0.0
